{"type":"FeatureCollection","features":[
{"type":"Feature","id":1157,"geometry":{"type":"LineString","coordinates":[[-73.156106,-37.018712],[-73.156517,-37.018905],[-73.156521,-37.018907],[-73.156669,-37.018976],[-73.157376,-37.019389],[-73.157772,-37.019524],[-73.158332,-37.019713],[-73.158802,-37.019773]]},"properties":{"code":"08102VE045","source":"Amenaza por Tsunami 2024 (SENAPRED)","sourceUrl":"https://services5.arcgis.com/i7S5PSnIJAUcWvSE/ArcGIS/rest/services/Amenaza_por_Tsunami_2024/FeatureServer/1","retrievedAt":"2026-10-01","license":"No explicit license published; used citing SENAPRED as the providing institution, as IDE Chile requests","verified":true}},
{"type":"Feature","id":1403,"geometry":{"type":"LineString","coordinates":[[-73.167738,-37.007485],[-73.169965,-37.006781],[-73.171732,-37.007426],[-73.17174,-37.008042],[-73.17174,-37.008048],[-73.172386,-37.008638],[-73.172867,-37.008715],[-73.173136,-37.008927],[-73.173367,-37.009003],[-73.173328,-37.009273],[-73.174001,-37.009581],[-73.17454,-37.009119],[-73.17429,-37.006715]]},"properties":{"code":"08102VE049","source":"Amenaza por Tsunami 2024 (SENAPRED)","sourceUrl":"https://services5.arcgis.com/i7S5PSnIJAUcWvSE/ArcGIS/rest/services/Amenaza_por_Tsunami_2024/FeatureServer/1","retrievedAt":"2026-10-01","license":"No explicit license published; used citing SENAPRED as the providing institution, as IDE Chile requests","verified":true}},
{"type":"Feature","id":1137,"geometry":{"type":"LineString","coordinates":[[-73.153079,-37.023267],[-73.154111,-37.022472],[-73.154192,-37.022234],[-73.153993,-37.022199],[-73.153763,-37.022231],[-73.153607,-37.022314],[-73.153399,-37.022168],[-73.153398,-37.022167],[-73.153236,-37.022054],[-73.152781,-37.02158],[-73.152639,-37.021606],[-73.152212,-37.021991],[-73.152002,-37.022103],[-73.151787,-37.022046],[-73.151408,-37.02194],[-73.151199,-37.021769]]},"properties":{"code":"08102VE076","source":"Amenaza por Tsunami 2024 (SENAPRED)","sourceUrl":"https://services5.arcgis.com/i7S5PSnIJAUcWvSE/ArcGIS/rest/services/Amenaza_por_Tsunami_2024/FeatureServer/1","retrievedAt":"2026-10-01","license":"No explicit license published; used citing SENAPRED as the providing institution, as IDE Chile requests","verified":true}},
{"type":"Feature","id":1406,"geometry":{"type":"LineString","coordinates":[[-73.159861,-37.014392],[-73.161694,-37.014794],[-73.161701,-37.014796],[-73.16199,-37.014859],[-73.161359,-37.01666],[-73.161283,-37.016855],[-73.161662,-37.017151],[-73.16141,-37.017568],[-73.161405,-37.018084]]},"properties":{"code":"08102VE046","source":"Amenaza por Tsunami 2024 (SENAPRED)","sourceUrl":"https://services5.arcgis.com/i7S5PSnIJAUcWvSE/ArcGIS/rest/services/Amenaza_por_Tsunami_2024/FeatureServer/1","retrievedAt":"2026-10-01","license":"No explicit license published; used citing SENAPRED as the providing institution, as IDE Chile requests","verified":true}},
{"type":"Feature","id":1160,"geometry":{"type":"LineString","coordinates":[[-73.158349,-37.007037],[-73.157098,-37.006652],[-73.156936,-37.006721],[-73.156254,-37.008569],[-73.155462,-37.008434],[-73.154791,-37.009493],[-73.154599,-37.009948],[-73.15397,-37.010794],[-73.152881,-37.01241],[-73.152241,-37.013456],[-73.15154,-37.014639],[-73.151539,-37.014639],[-73.151453,-37.014785],[-73.151047,-37.015413],[-73.151929,-37.016657]]},"properties":{"code":"08102VE043","source":"Amenaza por Tsunami 2024 (SENAPRED)","sourceUrl":"https://services5.arcgis.com/i7S5PSnIJAUcWvSE/ArcGIS/rest/services/Amenaza_por_Tsunami_2024/FeatureServer/1","retrievedAt":"2026-10-01","license":"No explicit license published; used citing SENAPRED as the providing institution, as IDE Chile requests","verified":true}},
{"type":"Feature","id":1145,"geometry":{"type":"LineString","coordinates":[[-73.175443,-36.991227],[-73.172635,-36.991942],[-73.169835,-36.992709],[-73.166707,-36.993511],[-73.163845,-36.994212],[-73.163249,-36.994173],[-73.162884,-36.993404],[-73.161557,-36.993712],[-73.158537,-36.993443],[-73.153016,-36.994674],[-73.145149,-36.995154],[-73.144995,-36.998886]]},"properties":{"code":"08102VE069","source":"Amenaza por Tsunami 2024 (SENAPRED)","sourceUrl":"https://services5.arcgis.com/i7S5PSnIJAUcWvSE/ArcGIS/rest/services/Amenaza_por_Tsunami_2024/FeatureServer/1","retrievedAt":"2026-10-01","license":"No explicit license published; used citing SENAPRED as the providing institution, as IDE Chile requests","verified":true}},
{"type":"Feature","id":1140,"geometry":{"type":"LineString","coordinates":[[-73.147083,-37.0041],[-73.146527,-37.004609],[-73.146526,-37.00461],[-73.146009,-37.005084],[-73.144325,-37.006451],[-73.143766,-37.006924],[-73.143045,-37.007375],[-73.142509,-37.007601],[-73.142503,-37.007806]]},"properties":{"code":"08102VE073","source":"Amenaza por Tsunami 2024 (SENAPRED)","sourceUrl":"https://services5.arcgis.com/i7S5PSnIJAUcWvSE/ArcGIS/rest/services/Amenaza_por_Tsunami_2024/FeatureServer/1","retrievedAt":"2026-10-01","license":"No explicit license published; used citing SENAPRED as the providing institution, as IDE Chile requests","verified":true}},
{"type":"Feature","id":1401,"geometry":{"type":"LineString","coordinates":[[-73.164416,-37.022574],[-73.164739,-37.020683],[-73.164913,-37.02022],[-73.164919,-37.020218],[-73.165306,-37.0201],[-73.165842,-37.019903],[-73.166135,-37.019758],[-73.16628,-37.019504],[-73.166145,-37.019066],[-73.165716,-37.019115],[-73.162982,-37.019178],[-73.161962,-37.019374],[-73.161918,-37.019072]]},"properties":{"code":"08102VE051","source":"Amenaza por Tsunami 2024 (SENAPRED)","sourceUrl":"https://services5.arcgis.com/i7S5PSnIJAUcWvSE/ArcGIS/rest/services/Amenaza_por_Tsunami_2024/FeatureServer/1","retrievedAt":"2026-10-01","license":"No explicit license published; used citing SENAPRED as the providing institution, as IDE Chile requests","verified":true}},
{"type":"Feature","id":1143,"geometry":{"type":"LineString","coordinates":[[-73.176791,-36.99275],[-73.177966,-36.995769],[-73.178326,-36.995806],[-73.179625,-36.997634],[-73.180159,-36.998325],[-73.180467,-36.999179],[-73.180649,-37.000106],[-73.180819,-37.001051],[-73.18085,-37.001347],[-73.18085,-37.001348],[-73.180853,-37.001378],[-73.180842,-37.001841],[-73.180624,-37.002222],[-73.180421,-37.002713],[-73.180391,-37.003037],[-73.180445,-37.003772],[-73.179503,-37.004041],[-73.178849,-37.004099]]},"properties":{"code":"08102VE018","source":"Amenaza por Tsunami 2024 (SENAPRED)","sourceUrl":"https://services5.arcgis.com/i7S5PSnIJAUcWvSE/ArcGIS/rest/services/Amenaza_por_Tsunami_2024/FeatureServer/1","retrievedAt":"2026-10-01","license":"No explicit license published; used citing SENAPRED as the providing institution, as IDE Chile requests","verified":true}},
{"type":"Feature","id":1404,"geometry":{"type":"LineString","coordinates":[[-73.162411,-37.005757],[-73.164699,-37.006562],[-73.163943,-37.007926],[-73.167538,-37.009168],[-73.167446,-37.012361],[-73.167446,-37.012366],[-73.167398,-37.014046],[-73.16801,-37.014527],[-73.168293,-37.015032],[-73.168072,-37.015512],[-73.167727,-37.01593],[-73.167331,-37.016935],[-73.168148,-37.016904],[-73.168527,-37.016952],[-73.168918,-37.017138]]},"properties":{"code":"08102VE048","source":"Amenaza por Tsunami 2024 (SENAPRED)","sourceUrl":"https://services5.arcgis.com/i7S5PSnIJAUcWvSE/ArcGIS/rest/services/Amenaza_por_Tsunami_2024/FeatureServer/1","retrievedAt":"2026-10-01","license":"No explicit license published; used citing SENAPRED as the providing institution, as IDE Chile requests","verified":true}},
{"type":"Feature","id":1161,"geometry":{"type":"LineString","coordinates":[[-73.149884,-37.006204],[-73.148498,-37.008261],[-73.147652,-37.009152],[-73.148924,-37.009974],[-73.148926,-37.009976],[-73.149606,-37.010415],[-73.149471,-37.010575],[-73.14943,-37.010927],[-73.148896,-37.01163],[-73.148683,-37.011979],[-73.14824,-37.012028],[-73.14808,-37.012065],[-73.147772,-37.011991],[-73.147427,-37.012003]]},"properties":{"code":"08102VE042","source":"Amenaza por Tsunami 2024 (SENAPRED)","sourceUrl":"https://services5.arcgis.com/i7S5PSnIJAUcWvSE/ArcGIS/rest/services/Amenaza_por_Tsunami_2024/FeatureServer/1","retrievedAt":"2026-10-01","license":"No explicit license published; used citing SENAPRED as the providing institution, as IDE Chile requests","verified":true}},
{"type":"Feature","id":1144,"geometry":{"type":"LineString","coordinates":[[-73.168988,-36.999345],[-73.165609,-36.998936],[-73.165544,-36.999259],[-73.163061,-36.998976],[-73.162341,-36.998876],[-73.16188,-36.999718],[-73.159301,-36.999422],[-73.157668,-36.99924],[-73.156226,-36.999462],[-73.154576,-36.999813],[-73.1525,-37.000115],[-73.150594,-37.000418],[-73.149392,-37.000608],[-73.14533,-36.99888],[-73.144522,-36.999738],[-73.144522,-36.999739],[-73.144394,-36.999874],[-73.144557,-37.00018],[-73.144631,-37.000503],[-73.144596,-37.000738],[-73.144334,-37.000706],[-73.144128,-37.000757],[-73.143861,-37.0009],[-73.143661,-37.001045],[-73.143557,-37.001097],[-73.143264,-37.001179],[-73.143148,-37.001248],[-73.143107,-37.001288],[-73.14308,-37.001364],[-73.143073,-37.001458],[-73.143071,-37.00154],[-73.143053,-37.001626],[-73.142994,-37.001666],[-73.1428,-37.001703],[-73.142646,-37.001701],[-73.142523,-37.00169],[-73.142428,-37.001704],[-73.142109,-37.001832],[-73.142003,-37.001858],[-73.141491,-37.001899],[-73.141195,-37.001868],[-73.141074,-37.00189],[-73.140976,-37.001946],[-73.140938,-37.00204],[-73.140996,-37.002211],[-73.141097,-37.002408],[-73.141105,-37.002586],[-73.141039,-37.00271],[-73.14093,-37.002749],[-73.140727,-37.002325],[-73.140632,-37.001836],[-73.140731,-37.001805],[-73.141004,-37.001685],[-73.141378,-37.001526],[-73.141863,-37.001266],[-73.142297,-37.001324]]},"properties":{"code":"08102VE070","source":"Amenaza por Tsunami 2024 (SENAPRED)","sourceUrl":"https://services5.arcgis.com/i7S5PSnIJAUcWvSE/ArcGIS/rest/services/Amenaza_por_Tsunami_2024/FeatureServer/1","retrievedAt":"2026-10-01","license":"No explicit license published; used citing SENAPRED as the providing institution, as IDE Chile requests","verified":true}},
{"type":"Feature","id":1141,"geometry":{"type":"LineString","coordinates":[[-73.166801,-37.001065],[-73.162499,-37.000617],[-73.162405,-37.001061],[-73.161595,-37.000983],[-73.161371,-37.000662],[-73.156399,-37.000025],[-73.156279,-36.999697]]},"properties":{"code":"08102VE072","source":"Amenaza por Tsunami 2024 (SENAPRED)","sourceUrl":"https://services5.arcgis.com/i7S5PSnIJAUcWvSE/ArcGIS/rest/services/Amenaza_por_Tsunami_2024/FeatureServer/1","retrievedAt":"2026-10-01","license":"No explicit license published; used citing SENAPRED as the providing institution, as IDE Chile requests","verified":true}},
{"type":"Feature","id":1158,"geometry":{"type":"LineString","coordinates":[[-73.157527,-37.016679],[-73.158607,-37.016989],[-73.158932,-37.017025],[-73.158938,-37.017025],[-73.159094,-37.017043],[-73.158975,-37.017328],[-73.159242,-37.017832],[-73.159432,-37.017925],[-73.159184,-37.018774],[-73.159147,-37.019035],[-73.159783,-37.019122],[-73.159707,-37.019317],[-73.15939,-37.019626]]},"properties":{"code":"08102VE044","source":"Amenaza por Tsunami 2024 (SENAPRED)","sourceUrl":"https://services5.arcgis.com/i7S5PSnIJAUcWvSE/ArcGIS/rest/services/Amenaza_por_Tsunami_2024/FeatureServer/1","retrievedAt":"2026-10-01","license":"No explicit license published; used citing SENAPRED as the providing institution, as IDE Chile requests","verified":true}},
{"type":"Feature","id":1142,"geometry":{"type":"LineString","coordinates":[[-73.176326,-36.996334],[-73.170288,-36.99797],[-73.169913,-36.998619],[-73.168764,-36.998012],[-73.16874,-36.998173],[-73.16802,-36.99812],[-73.165811,-36.997818],[-73.165796,-36.997675],[-73.163232,-36.997355],[-73.16332,-36.996987],[-73.162584,-36.996871],[-73.158674,-36.996472],[-73.158097,-36.996409],[-73.157719,-36.99871],[-73.157651,-36.999138]]},"properties":{"code":"08102VE071","source":"Amenaza por Tsunami 2024 (SENAPRED)","sourceUrl":"https://services5.arcgis.com/i7S5PSnIJAUcWvSE/ArcGIS/rest/services/Amenaza_por_Tsunami_2024/FeatureServer/1","retrievedAt":"2026-10-01","license":"No explicit license published; used citing SENAPRED as the providing institution, as IDE Chile requests","verified":true}},
{"type":"Feature","id":1405,"geometry":{"type":"LineString","coordinates":[[-73.162018,-37.012651],[-73.162574,-37.012854],[-73.163565,-37.014361],[-73.163568,-37.014365],[-73.163752,-37.014645],[-73.16546,-37.016335],[-73.166496,-37.017906],[-73.166914,-37.017926],[-73.167131,-37.017826]]},"properties":{"code":"08102VE047","source":"Amenaza por Tsunami 2024 (SENAPRED)","sourceUrl":"https://services5.arcgis.com/i7S5PSnIJAUcWvSE/ArcGIS/rest/services/Amenaza_por_Tsunami_2024/FeatureServer/1","retrievedAt":"2026-10-01","license":"No explicit license published; used citing SENAPRED as the providing institution, as IDE Chile requests","verified":true}},
{"type":"Feature","id":1139,"geometry":{"type":"LineString","coordinates":[[-73.149909,-37.025743],[-73.148076,-37.024916],[-73.148604,-37.024425],[-73.14851,-37.024373],[-73.148167,-37.024386],[-73.148165,-37.024386],[-73.147833,-37.024399],[-73.147687,-37.02447],[-73.147079,-37.024586],[-73.146813,-37.024629],[-73.146043,-37.024843],[-73.145654,-37.025033],[-73.144945,-37.025219]]},"properties":{"code":"08102VE074","source":"Amenaza por Tsunami 2024 (SENAPRED)","sourceUrl":"https://services5.arcgis.com/i7S5PSnIJAUcWvSE/ArcGIS/rest/services/Amenaza_por_Tsunami_2024/FeatureServer/1","retrievedAt":"2026-10-01","license":"No explicit license published; used citing SENAPRED as the providing institution, as IDE Chile requests","verified":true}},
{"type":"Feature","id":1402,"geometry":{"type":"LineString","coordinates":[[-73.171059,-37.023449],[-73.171454,-37.022967],[-73.171454,-37.022967],[-73.171546,-37.022854],[-73.171601,-37.022494],[-73.171435,-37.02176],[-73.17202,-37.021121],[-73.173311,-37.02178]]},"properties":{"code":"08102VE050","source":"Amenaza por Tsunami 2024 (SENAPRED)","sourceUrl":"https://services5.arcgis.com/i7S5PSnIJAUcWvSE/ArcGIS/rest/services/Amenaza_por_Tsunami_2024/FeatureServer/1","retrievedAt":"2026-10-01","license":"No explicit license published; used citing SENAPRED as the providing institution, as IDE Chile requests","verified":true}}
]}
