{"type":"FeatureCollection","features":[
{"type":"Feature","id":192,"geometry":{"type":"Point","coordinates":[-73.131979,-37.029552]},"properties":{"code":"08102PE013","name":null,"source":"Amenaza por Tsunami 2024 (SENAPRED)","sourceUrl":"https://services5.arcgis.com/i7S5PSnIJAUcWvSE/ArcGIS/rest/services/Amenaza_por_Tsunami_2024/FeatureServer/0","retrievedAt":"2026-10-04","license":"No explicit license published; used citing SENAPRED as the providing institution, as IDE Chile requests","verified":true}},
{"type":"Feature","id":209,"geometry":{"type":"Point","coordinates":[-73.142479,-37.008072]},"properties":{"code":"08102PE030","name":null,"source":"Amenaza por Tsunami 2024 (SENAPRED)","sourceUrl":"https://services5.arcgis.com/i7S5PSnIJAUcWvSE/ArcGIS/rest/services/Amenaza_por_Tsunami_2024/FeatureServer/0","retrievedAt":"2026-10-04","license":"No explicit license published; used citing SENAPRED as the providing institution, as IDE Chile requests","verified":true}},
{"type":"Feature","id":201,"geometry":{"type":"Point","coordinates":[-73.138676,-37.05505]},"properties":{"code":"08102PE022","name":null,"source":"Amenaza por Tsunami 2024 (SENAPRED)","sourceUrl":"https://services5.arcgis.com/i7S5PSnIJAUcWvSE/ArcGIS/rest/services/Amenaza_por_Tsunami_2024/FeatureServer/0","retrievedAt":"2026-10-04","license":"No explicit license published; used citing SENAPRED as the providing institution, as IDE Chile requests","verified":true}},
{"type":"Feature","id":195,"geometry":{"type":"Point","coordinates":[-73.142269,-37.025721]},"properties":{"code":"08102PE016","name":null,"source":"Amenaza por Tsunami 2024 (SENAPRED)","sourceUrl":"https://services5.arcgis.com/i7S5PSnIJAUcWvSE/ArcGIS/rest/services/Amenaza_por_Tsunami_2024/FeatureServer/0","retrievedAt":"2026-10-04","license":"No explicit license published; used citing SENAPRED as the providing institution, as IDE Chile requests","verified":true}},
{"type":"Feature","id":212,"geometry":{"type":"Point","coordinates":[-73.122126,-36.983292]},"properties":{"code":"08102PE033","name":null,"source":"Amenaza por Tsunami 2024 (SENAPRED)","sourceUrl":"https://services5.arcgis.com/i7S5PSnIJAUcWvSE/ArcGIS/rest/services/Amenaza_por_Tsunami_2024/FeatureServer/0","retrievedAt":"2026-10-04","license":"No explicit license published; used citing SENAPRED as the providing institution, as IDE Chile requests","verified":true}},
{"type":"Feature","id":198,"geometry":{"type":"Point","coordinates":[-73.161871,-37.018886]},"properties":{"code":"08102PE019","name":null,"source":"Amenaza por Tsunami 2024 (SENAPRED)","sourceUrl":"https://services5.arcgis.com/i7S5PSnIJAUcWvSE/ArcGIS/rest/services/Amenaza_por_Tsunami_2024/FeatureServer/0","retrievedAt":"2026-10-04","license":"No explicit license published; used citing SENAPRED as the providing institution, as IDE Chile requests","verified":true}},
{"type":"Feature","id":213,"geometry":{"type":"Point","coordinates":[-73.120446,-36.972619]},"properties":{"code":"08102PE034","name":null,"source":"Amenaza por Tsunami 2024 (SENAPRED)","sourceUrl":"https://services5.arcgis.com/i7S5PSnIJAUcWvSE/ArcGIS/rest/services/Amenaza_por_Tsunami_2024/FeatureServer/0","retrievedAt":"2026-10-04","license":"No explicit license published; used citing SENAPRED as the providing institution, as IDE Chile requests","verified":true}},
{"type":"Feature","id":207,"geometry":{"type":"Point","coordinates":[-73.178416,-37.004133]},"properties":{"code":"08102PE028","name":null,"source":"Amenaza por Tsunami 2024 (SENAPRED)","sourceUrl":"https://services5.arcgis.com/i7S5PSnIJAUcWvSE/ArcGIS/rest/services/Amenaza_por_Tsunami_2024/FeatureServer/0","retrievedAt":"2026-10-04","license":"No explicit license published; used citing SENAPRED as the providing institution, as IDE Chile requests","verified":true}},
{"type":"Feature","id":193,"geometry":{"type":"Point","coordinates":[-73.135524,-37.026221]},"properties":{"code":"08102PE014","name":null,"source":"Amenaza por Tsunami 2024 (SENAPRED)","sourceUrl":"https://services5.arcgis.com/i7S5PSnIJAUcWvSE/ArcGIS/rest/services/Amenaza_por_Tsunami_2024/FeatureServer/0","retrievedAt":"2026-10-04","license":"No explicit license published; used citing SENAPRED as the providing institution, as IDE Chile requests","verified":true}},
{"type":"Feature","id":210,"geometry":{"type":"Point","coordinates":[-73.142484,-37.001271]},"properties":{"code":"08102PE031","name":null,"source":"Amenaza por Tsunami 2024 (SENAPRED)","sourceUrl":"https://services5.arcgis.com/i7S5PSnIJAUcWvSE/ArcGIS/rest/services/Amenaza_por_Tsunami_2024/FeatureServer/0","retrievedAt":"2026-10-04","license":"No explicit license published; used citing SENAPRED as the providing institution, as IDE Chile requests","verified":true}},
{"type":"Feature","id":196,"geometry":{"type":"Point","coordinates":[-73.173687,-37.021914]},"properties":{"code":"08102PE017","name":null,"source":"Amenaza por Tsunami 2024 (SENAPRED)","sourceUrl":"https://services5.arcgis.com/i7S5PSnIJAUcWvSE/ArcGIS/rest/services/Amenaza_por_Tsunami_2024/FeatureServer/0","retrievedAt":"2026-10-04","license":"No explicit license published; used citing SENAPRED as the providing institution, as IDE Chile requests","verified":true}},
{"type":"Feature","id":205,"geometry":{"type":"Point","coordinates":[-73.149074,-37.02145]},"properties":{"code":"08102PE026","name":null,"source":"Amenaza por Tsunami 2024 (SENAPRED)","sourceUrl":"https://services5.arcgis.com/i7S5PSnIJAUcWvSE/ArcGIS/rest/services/Amenaza_por_Tsunami_2024/FeatureServer/0","retrievedAt":"2026-10-04","license":"No explicit license published; used citing SENAPRED as the providing institution, as IDE Chile requests","verified":true}},
{"type":"Feature","id":199,"geometry":{"type":"Point","coordinates":[-73.159162,-37.019827]},"properties":{"code":"08102PE020","name":null,"source":"Amenaza por Tsunami 2024 (SENAPRED)","sourceUrl":"https://services5.arcgis.com/i7S5PSnIJAUcWvSE/ArcGIS/rest/services/Amenaza_por_Tsunami_2024/FeatureServer/0","retrievedAt":"2026-10-04","license":"No explicit license published; used citing SENAPRED as the providing institution, as IDE Chile requests","verified":true}},
{"type":"Feature","id":208,"geometry":{"type":"Point","coordinates":[-73.14692,-37.011976]},"properties":{"code":"08102PE029","name":null,"source":"Amenaza por Tsunami 2024 (SENAPRED)","sourceUrl":"https://services5.arcgis.com/i7S5PSnIJAUcWvSE/ArcGIS/rest/services/Amenaza_por_Tsunami_2024/FeatureServer/0","retrievedAt":"2026-10-04","license":"No explicit license published; used citing SENAPRED as the providing institution, as IDE Chile requests","verified":true}},
{"type":"Feature","id":197,"geometry":{"type":"Point","coordinates":[-73.174913,-37.022521]},"properties":{"code":"08102PE018","name":null,"source":"Amenaza por Tsunami 2024 (SENAPRED)","sourceUrl":"https://services5.arcgis.com/i7S5PSnIJAUcWvSE/ArcGIS/rest/services/Amenaza_por_Tsunami_2024/FeatureServer/0","retrievedAt":"2026-10-04","license":"No explicit license published; used citing SENAPRED as the providing institution, as IDE Chile requests","verified":true}},
{"type":"Feature","id":214,"geometry":{"type":"Point","coordinates":[-73.133202,-36.963708]},"properties":{"code":"08102PE035","name":null,"source":"Amenaza por Tsunami 2024 (SENAPRED)","sourceUrl":"https://services5.arcgis.com/i7S5PSnIJAUcWvSE/ArcGIS/rest/services/Amenaza_por_Tsunami_2024/FeatureServer/0","retrievedAt":"2026-10-04","license":"No explicit license published; used citing SENAPRED as the providing institution, as IDE Chile requests","verified":true}},
{"type":"Feature","id":206,"geometry":{"type":"Point","coordinates":[-73.171472,-37.013107]},"properties":{"code":"08102PE027","name":null,"source":"Amenaza por Tsunami 2024 (SENAPRED)","sourceUrl":"https://services5.arcgis.com/i7S5PSnIJAUcWvSE/ArcGIS/rest/services/Amenaza_por_Tsunami_2024/FeatureServer/0","retrievedAt":"2026-10-04","license":"No explicit license published; used citing SENAPRED as the providing institution, as IDE Chile requests","verified":true}},
{"type":"Feature","id":200,"geometry":{"type":"Point","coordinates":[-73.142221,-37.049096]},"properties":{"code":"08102PE021","name":null,"source":"Amenaza por Tsunami 2024 (SENAPRED)","sourceUrl":"https://services5.arcgis.com/i7S5PSnIJAUcWvSE/ArcGIS/rest/services/Amenaza_por_Tsunami_2024/FeatureServer/0","retrievedAt":"2026-10-04","license":"No explicit license published; used citing SENAPRED as the providing institution, as IDE Chile requests","verified":true}},
{"type":"Feature","id":194,"geometry":{"type":"Point","coordinates":[-73.137606,-37.026137]},"properties":{"code":"08102PE015","name":null,"source":"Amenaza por Tsunami 2024 (SENAPRED)","sourceUrl":"https://services5.arcgis.com/i7S5PSnIJAUcWvSE/ArcGIS/rest/services/Amenaza_por_Tsunami_2024/FeatureServer/0","retrievedAt":"2026-10-04","license":"No explicit license published; used citing SENAPRED as the providing institution, as IDE Chile requests","verified":true}}
]}
